SKYSAT-C6               
1 42992U 17068F   21273.37408847  .00005705  00000-0  14229-3 0  9992
2 42992  97.2762  29.4418 0002394  65.8772 294.2724 15.40596673218425
FLOCK 3M-4              
1 42997U 17068L   21273.38164335  .00003656  00000-0  15365-3 0  9994
2 42997  97.4464  23.2783 0012839 262.6111  97.3667 15.23996683217239
FLOCK 3M-2              
1 42998U 17068M   21273.53967070  .00009107  00000-0  37799-3 0  9991
2 42998  97.4291  21.2222 0011498 256.3536 103.6421 15.24014507217264
FLOCK 3P'-3             
1 43119U 18004J   21273.43917055  .00003028  00000-0  12556-3 0  9995
2 43119  97.4046 345.6438 0009537 191.4167 168.6855 15.24614810206577
FLOCK 3P'-2             
1 43120U 18004K   21273.43913839  .00002843  00000-0  11936-3 0  9998
2 43120  97.4055 345.3974 0009534 192.1276 167.9734 15.24244256206556
FLOCK 3P'-4             
1 43122U 18004M   21274.15495836  .00002862  00000-0  12009-3 0  9995
2 43122  97.4064 346.2273 0009327 191.3374 168.7654 15.24262186206664
FLOCK 3R-9              
1 43723U 18096E   21274.46801192  .00009322  00000-0  29504-3 0  9999
2 43723  97.3780 353.4162 0013425 250.2372 172.2511 15.32895199158471
FLOCK 3R-12             
1 43724U 18096F   21273.47033704  .00005309  00000-0  16932-3 0  9998
2 43724  97.3827 352.4751 0013806 251.6926 108.2814 15.32866434158329
FLOCK 3R-11             
1 43725U 18096G   21274.50026747  .00014943  00000-0  47068-3 0  9991
2 43725  97.3831 353.5052 0013747 247.2965 112.6824 15.32919467158481
FLOCK 3R-8              
1 43727U 18096J   21274.02218508  .00016069  00000-0  50592-3 0  9995
2 43727  97.3840 353.2293 0013894 250.8400 109.1338 15.32915993158418
FLOCK 3R-4              
1 43733U 18096Q   21274.19244243  .00011431  00000-0  36040-3 0  9995
2 43733  97.3818 353.4994 0016759 255.0702 162.3685 15.32910442158448
FLOCK 3R-3              
1 43734U 18096R   21274.48430649  .00007379  00000-0  23383-3 0  9997
2 43734  97.3824 353.8785 0016639 252.4418 173.2209 15.32888392158496
FLOCK 3R-6              
1 43741U 18096Y   21274.17697993  .00004378  00000-0  13998-3 0  9995
2 43741  97.3841 353.2921 0013974 251.9906 163.4435 15.32885086158448
FLOCK 3R-7              
1 43742U 18096Z   21274.48829454  .00007189  00000-0  22816-3 0  9991
2 43742  97.3856 353.6096 0013450 248.7650 123.3044 15.32894438158487
FLOCK 3R-1              
1 43747U 18096AE  21274.13880247  .00018124  00000-0  56958-3 0  9990
2 43747  97.3847 353.5492 0016815 253.7637 106.1755 15.32902931158453
FLOCK 3S-1              
1 43769U 18099M   21274.12173290  .00000968  00000-0  92563-4 0  9999
2 43769  97.6533 341.4126 0015327  65.7702 294.5119 14.95419293154244
SKYSAT-C12              
1 43797U 18099AR  21274.49648959  .00005403  00000-0  13873-3 0  9994
2 43797  97.1638 342.3753 0002625  72.5784 287.5749 15.39722844157629
SKYSAT-C13              
1 43802U 18099AW  21274.10085751  .00003965  00000-0  12021-3 0  9999
2 43802  97.1926 340.8736 0005949 129.1568 231.0205 15.34682866157154
FLOCK 3K-4              
1 43893U 18111T   21274.47245427  .00004322  00000-0  15531-3 0  9999
2 43893  97.2200 166.8216 0018806 278.8017  81.1093 15.29004755153914
FLOCK 3K-2              
1 43895U 18111V   21273.93950541  .00017020  00000-0  60243-3 0  9990
2 43895  97.2190 166.2729 0019385 279.9865  79.9188 15.29026622153831
FLOCK 3K-5              
1 43899U 18111Z   21274.45382509  .00004621  00000-0  16585-3 0  9998
2 43899  97.2200 166.8477 0017970 272.9831  86.9353 15.29020411153918
FLOCK 3K-7              
1 43902U 18111AC  21274.44448730  .00004462  00000-0  16027-3 0  9995
2 43902  97.2198 166.8298 0018033 273.9672  85.9507 15.29018113153911
FLOCK 3K-11             
1 43904U 18111AE  21274.42594525  .00004449  00000-0  15985-3 0  9996
2 43904  97.2200 166.8821 0017537 273.3959  86.5275 15.29017545153916
FLOCK 3K-10             
1 43905U 18111AF  21274.48200755  .00003798  00000-0  13672-3 0  9999
2 43905  97.2200 166.9557 0017068 272.3817  87.5470 15.29053091153920
FLOCK 3K-9              
1 43906U 18111AG  21274.23883721  .00016143  00000-0  57184-3 0  9997
2 43906  97.2187 166.6241 0017763 273.6904  86.2305 15.29039902153888
FLOCK 4A-2              
1 44080U 19018C   21274.12769317  .00005231  00000-0  20850-3 0  9996
2 44080  97.3512 333.3421 0010605 312.1213  47.9123 15.25589951139086
FLOCK 4A-3              
1 44081U 19018D   21274.43137821  .00005241  00000-0  20892-3 0  9997
2 44081  97.3512 333.6778 0010450 313.5924  46.4446 15.25585563139130
FLOCK 4A-17             
1 44088U 19018L   21274.42399247  .00007947  00000-0  31518-3 0  9997
2 44088  97.3526 333.9616 0011173 319.1559  40.8841 15.25587391139133
FLOCK 4A-19             
1 44090U 19018N   21274.12082344  .00007047  00000-0  27985-3 0  9998
2 44090  97.3524 333.7434 0011203 320.9749  39.0680 15.25585867139097
FLOCK 4A-6              
1 44094U 19018S   21274.44090383  .00005252  00000-0  20936-3 0  9994
2 44094  97.3530 334.1440 0008835 328.1550  31.9153 15.25599840139156
FLOCK 4A-5              
1 44095U 19018T   21274.43229718  .00003617  00000-0  14691-3 0  9994
2 44095  97.3527 334.1534 0009307 326.3921  33.6725 15.25173628139149
FLOCK 4A-11             
1 44096U 19018U   21274.41647436  .00006132  00000-0  24390-3 0  9996
2 44096  97.3534 334.2023 0009176 330.6182  29.4539 15.25603042139147
FLOCK 4A-9              
1 44098U 19018W   21274.40914625  .00008595  00000-0  34095-3 0  9992
2 44098  97.3531 334.2084 0009669 331.2610  28.8094 15.25568349139142
FLOCK 4A-16             
1 44099U 19018X   21274.40005861  .00009391  00000-0  37215-3 0  9998
2 44099  97.3529 334.1630 0009697 332.3484  27.7238 15.25575887139141
FLOCK 4P-10             
1 44808U 19081E   21274.40062332  .00006727  00000-0  29605-3 0  9996
2 44808  97.4393 337.0580 0014268  57.8943 302.3676 15.22094987102449
FLOCK 4P-11             
1 44809U 19081F   21274.12276160  .00009748  00000-0  42654-3 0  9997
2 44809  97.4386 336.7987 0014124  58.4442 301.8171 15.22167922102401
FLOCK 4P-4              
1 44811U 19081H   21273.43717800  .00003876  00000-0  17207-3 0  9996
2 44811  97.4428 336.4026 0012956  52.5519 307.6894 15.22089591102303
FLOCK 4P-3              
1 44812U 19081J   21274.15314902  .00003880  00000-0  17217-3 0  9999
2 44812  97.4428 337.1264 0012821  50.0994 310.1367 15.22101865102412
FLOCK 4P-2              
1 44813U 19081K   21274.10890901  .00005018  00000-0  22203-3 0  9999
2 44813  97.4397 336.9075 0012620  51.4448 308.7917 15.22059235102407
FLOCK 4P-1              
1 44814U 19081L   21274.10150481  .00002956  00000-0  13201-3 0  9998
2 44814  97.4398 336.9181 0012491  51.3679 308.8673 15.22084003102409
FLOCK 4P-7              
1 44816U 19081N   21273.75106259  .00002821  00000-0  12615-3 0  9993
2 44816  97.4395 336.6096 0012240  53.5070 306.7292 15.22080116102350
FLOCK 4P-5              
1 44818U 19081Q   21274.13104085  .00008354  00000-0  36692-3 0  9991
2 44818  97.4398 337.0287 0011743  54.2761 305.9566 15.22114358102412
SKYSAT-C14              
1 45788U 20038BL  21273.38498475  .00014532  00000-0  19119-3 0  9997
2 45788  52.9984 153.3284 0005466  33.8733 326.2626 15.58747041 74083
SKYSAT-C16              
1 45789U 20038BM  21274.36777327  .00017677  00000-0  23022-3 0  9994
2 45789  52.9992 148.0878 0006514  29.6249 330.5130 15.58838590 74238
SKYSAT-C15              
1 45790U 20038BN  21273.10666321  .00015381  00000-0  20166-3 0  9994
2 45790  52.9977 154.4057 0005417 355.4527   4.6434 15.58786020 74037
SKYSAT-C17              
1 46179U 20057BQ  21273.55589906  .00013633  00000-0  18052-3 0  9998
2 46179  52.9969 245.0624 0010002 353.7063   6.3821 15.58603019 63380
SKYSAT-C18              
1 46180U 20057BR  21274.11955225  .00017212  00000-0  22622-3 0  9999
2 46180  52.9923 242.6834 0011477 149.8604 210.3070 15.58570630 63497
SKYSAT-C19              
1 46235U 20057BS  21273.31897292  .00013876  00000-0  18639-3 0  9995
2 46235  52.9943 244.8639 0004776 253.3620 106.6867 15.58237490 63394
FLOCK 4V-9              
1 46282U 20061L   21273.47998127  .00004466  00000-0  27052-3 0  9992
2 46282  97.4795 344.4661 0005271  84.2095 275.9735 15.11078068 59207
FLOCK 4V-12             
1 46283U 20061M   21273.47601158  .00003976  00000-0  24126-3 0  9992
2 46283  97.4813 344.5152 0005259  83.5851 276.5977 15.11082307 59209
FLOCK 4V-11             
1 46285U 20061P   21274.46440407  .00001649  00000-0  10221-3 0  9998
2 46285  97.4798 345.4663 0005224  79.8961 280.2858 15.11109329 59352
FLOCK 4V-14             
1 46286U 20061Q   21274.12482237  .00003672  00000-0  22236-3 0  9996
2 46286  97.4798 345.1506 0005159  80.9299 279.2514 15.11200493 59306
FLOCK 4V-8              
1 46288U 20061S   21273.46281756  .00003058  00000-0  18635-3 0  9993
2 46288  97.4801 344.4957 0004420  93.0932 267.0804 15.11101140 59119
FLOCK 4V-6              
1 46289U 20061T   21273.45758599  .00004403  00000-0  26602-3 0  9995
2 46289  97.4803 344.5143 0004291  92.1850 267.9872 15.11188150 59205
FLOCK 4V-5              
1 46290U 20061U   21274.11302208  .00003651  00000-0  22106-3 0  9992
2 46290  97.4796 345.1558 0004264  90.0066 270.1653 15.11217795 59303
FLOCK 4V-7              
1 46291U 20061V   21273.43521849  .00003303  00000-0  19997-3 0  9999
2 46291  97.4799 344.5399 0004076  90.1213 270.0484 15.11290504 59095
FLOCK 4V-10             
1 46296U 20061AA  21274.11657951  .00004023  00000-0  24311-3 0  9990
2 46296  97.4805 345.3354 0002242  75.2548 284.8930 15.11232720 59271
FLOCK 4V-13             
1 46297U 20061AB  21273.51165448  .00003562  00000-0  21505-3 0  9998
2 46297  97.4804 344.7596 0002240  72.5583 287.5892 15.11342003 59160
FLOCK 4V-1              
1 46313U 20061AT  21273.46096560  .00002493  00000-0  15007-3 0  9991
2 46313  97.4806 344.9736 0003514  33.9961 326.1494 15.11718192 59181
